YOTSUBA-KULOVER         
1 65941U 98067XN  26066.23891874  .00265557  00000+0  13994-2 0  9994
2 65941  51.6206  69.9935 0005818  51.4976 308.6546 15.79338346 23110
E-KAGAKU-1              
1 65943U 98067XQ  26066.24285552  .00257698  00000+0  13785-2 0  9992
2 65943  51.6230  70.0378 0006124  57.4847 302.6745 15.79025716 23116
HRC MONOBLOCK CAMERA    
1 66052U 98067XR  26066.39724134  .00069329  00000+0  78072-3 0  9997
2 66052  51.6271  77.1000 0003583  82.3141 277.8259 15.61903299 22038
HTV-X1                  
1 66174U 25241A   26066.51273615  .00014539  00000+0  27602-3 0  9999
2 66174  51.6318  83.1189 0008132 167.0679 193.0520 15.48507964554474
SZ-21 MODULE            
1 66515U 25246C   26066.46287831  .00050102  00000+0  43323-3 0  9996
2 66515  41.4737 217.0662 0001429 294.3949  65.6744 15.68341086 17722
SHENZHOU-22             
1 66645U 25272A   26066.60376234  .00025948  00000+0  30832-3 0  9992
2 66645  41.4662 220.8523 0006959 260.1334  99.8719 15.60534588267522
SOYUZ-MS 28             
1 66664U 25275A   26066.51273615  .00014539  00000+0  27602-3 0  9990
2 66664  51.6318  83.1189 0008132 167.0679 193.0520 15.48507964554524
DUPLEX                  
1 66906U 98067XS  26066.27423626  .00039972  00000+0  56716-3 0  9996
2 66906  51.6285  81.5298 0002224 101.9633 258.1608 15.56027322 14752
ISS OBJECT XT           
1 66907U 98067XT  26066.41706409  .00193086  00000+0  16435-2 0  9996
2 66907  51.6248  77.2205 0004673  64.6105 295.5375 15.68423465 14826
ISS OBJECT XU           
1 66908U 98067XU  26066.54284614  .00187348  00000+0  15855-2 0  9999
2 66908  51.6244  76.5569 0004897  67.6315 292.5200 15.68582030 14842
SILVERSAT               
1 66909U 98067XV  26066.29346489  .00253597  00000+0  19116-2 0  9995
2 66909  51.6247  77.1411 0005453  60.9415 299.2128 15.71158496 14814
ISS OBJECT XW           
1 66910U 98067XW  26066.28354966  .00181703  00000+0  15885-2 0  9993
2 66910  51.6239  77.8210 0005017  72.1474 288.0069 15.67806072 14801
